{
  "type": "FeatureCollection",
  "features": [
    {
      "type": "Feature",
      "properties": {
        "norad_id": 37846,
        "name": "GSAT0101 (GALILEO-PFM)",
        "group": "gnss",
        "lat": 13.949504321492759,
        "lon": -4.061034447536994,
        "alt_km": 23215.895013325055,
        "timestamp": "2025-12-18T04:58:34.819802+00:00",
        "meta_object_name": "GSAT0101 (GALILEO-PFM)",
        "meta_object_id": "2011-060A",
        "meta_epoch": "2025-12-15T20:00:41.819904",
        "meta_mean_motion": 1.70475823,
        "meta_eccentricity": 0.00030775,
        "meta_inclination": 57.052,
        "meta_ra_of_asc_node": 346.7358,
        "meta_arg_of_pericenter": 316.7426,
        "meta_mean_anomaly": 43.2514,
        "meta_ephemeris_type": 0,
        "meta_classification_type": "U",
        "meta_norad_cat_id": 37846,
        "meta_element_set_no": 999,
        "meta_rev_at_epoch": 8799,
        "meta_bstar": 0,
        "meta_mean_motion_dot": -8.2e-07,
        "meta_mean_motion_ddot": 0,
        "tle_line1": "1 37846U 11060A   25349.83381736 -.00000082  00000+0  00000+0 0  9997",
        "tle_line2": "2 37846  57.0520 346.7358 0003077 316.7426  43.2514  1.70475823 87990"
      },
      "geometry": {
        "type": "Point",
        "coordinates": [
          -4.061034447536994,
          13.949504321492759
        ]
      }
    },
    {
      "type": "Feature",
      "properties": {
        "norad_id": 37847,
        "name": "GSAT0102 (GALILEO-FM2)",
        "group": "gnss",
        "lat": 47.91583954479503,
        "lon": 32.5798009088398,
        "alt_km": 23221.713409121527,
        "timestamp": "2025-12-18T04:58:34.819813+00:00",
        "meta_object_name": "GSAT0102 (GALILEO-FM2)",
        "meta_object_id": "2011-060B",
        "meta_epoch": "2025-12-16T01:10:38.655264",
        "meta_mean_motion": 1.7047605,
        "meta_eccentricity": 0.00050527,
        "meta_inclination": 57.0527,
        "meta_ra_of_asc_node": 346.7304,
        "meta_arg_of_pericenter": 311.0932,
        "meta_mean_anomaly": 226.4679,
        "meta_ephemeris_type": 0,
        "meta_classification_type": "U",
        "meta_norad_cat_id": 37847,
        "meta_element_set_no": 999,
        "meta_rev_at_epoch": 8800,
        "meta_bstar": 0,
        "meta_mean_motion_dot": -8.2e-07,
        "meta_mean_motion_ddot": 0,
        "tle_line1": "1 37847U 11060B   25350.04905851 -.00000082  00000+0  00000+0 0  9993",
        "tle_line2": "2 37847  57.0527 346.7304 0005052 311.0932 226.4679  1.70476050 88007"
      },
      "geometry": {
        "type": "Point",
        "coordinates": [
          32.5798009088398,
          47.91583954479503
        ]
      }
    },
    {
      "type": "Feature",
      "properties": {
        "norad_id": 37867,
        "name": "COSMOS 2476 (744)",
        "group": "gnss",
        "lat": -62.37730576375417,
        "lon": 16.93653300218638,
        "alt_km": 19094.372623025938,
        "timestamp": "2025-12-18T04:58:34.819825+00:00",
        "meta_object_name": "COSMOS 2476 (744)",
        "meta_object_id": "2011-064A",
        "meta_epoch": "2025-12-17T08:37:38.728128",
        "meta_mean_motion": 2.13103706,
        "meta_eccentricity": 0.00243783,
        "meta_inclination": 65.1645,
        "meta_ra_of_asc_node": 79.0153,
        "meta_arg_of_pericenter": 234.8774,
        "meta_mean_anomaly": 116.9996,
        "meta_ephemeris_type": 0,
        "meta_classification_type": "U",
        "meta_norad_cat_id": 37867,
        "meta_element_set_no": 999,
        "meta_rev_at_epoch": 10988,
        "meta_bstar": 0,
        "meta_mean_motion_dot": -4.8e-07,
        "meta_mean_motion_ddot": 0,
        "tle_line1": "1 37867U 11064A   25351.35947602 -.00000048  00000+0  00000+0 0  9996",
        "tle_line2": "2 37867  65.1645  79.0153 0024378 234.8774 116.9996  2.13103706109884"
      },
      "geometry": {
        "type": "Point",
        "coordinates": [
          16.93653300218638,
          -62.37730576375417
        ]
      }
    },
    {
      "type": "Feature",
      "properties": {
        "norad_id": 37868,
        "name": "COSMOS 2477 (745)",
        "group": "gnss",
        "lat": 62.151103244342856,
        "lon": -161.93837188021973,
        "alt_km": 19158.904645819355,
        "timestamp": "2025-12-18T04:58:34.819842+00:00",
        "meta_object_name": "COSMOS 2477 (745)",
        "meta_object_id": "2011-064B",
        "meta_epoch": "2025-12-17T02:26:26.820384",
        "meta_mean_motion": 2.13102893,
        "meta_eccentricity": 0.0021195,
        "meta_inclination": 65.1716,
        "meta_ra_of_asc_node": 79.1012,
        "meta_arg_of_pericenter": 234.7168,
        "meta_mean_anomaly": 100.3174,
        "meta_ephemeris_type": 0,
        "meta_classification_type": "U",
        "meta_norad_cat_id": 37868,
        "meta_element_set_no": 999,
        "meta_rev_at_epoch": 10987,
        "meta_bstar": 0,
        "meta_mean_motion_dot": -5e-07,
        "meta_mean_motion_ddot": 0,
        "tle_line1": "1 37868U 11064B   25351.10169931 -.00000050  00000+0  00000+0 0  9994",
        "tle_line2": "2 37868  65.1716  79.1012 0021195 234.7168 100.3174  2.13102893109879"
      },
      "geometry": {
        "type": "Point",
        "coordinates": [
          -161.93837188021973,
          62.151103244342856
        ]
      }
    },
    {
      "type": "Feature",
      "properties": {
        "norad_id": 37869,
        "name": "COSMOS 2475 (743)",
        "group": "gnss",
        "lat": 51.250307918677954,
        "lon": 114.23721174012046,
        "alt_km": 19190.43114702139,
        "timestamp": "2025-12-18T04:58:34.819870+00:00",
        "meta_object_name": "COSMOS 2475 (743)",
        "meta_object_id": "2011-064C",
        "meta_epoch": "2025-12-16T17:15:16.173216",
        "meta_mean_motion": 2.1310159,
        "meta_eccentricity": 0.00263578,
        "meta_inclination": 65.1784,
        "meta_ra_of_asc_node": 79.1342,
        "meta_arg_of_pericenter": 248.7608,
        "meta_mean_anomaly": 108.5583,
        "meta_ephemeris_type": 0,
        "meta_classification_type": "U",
        "meta_norad_cat_id": 37869,
        "meta_element_set_no": 999,
        "meta_rev_at_epoch": 10987,
        "meta_bstar": 0,
        "meta_mean_motion_dot": -5.2e-07,
        "meta_mean_motion_ddot": 0,
        "tle_line1": "1 37869U 11064C   25350.71893719 -.00000052  00000+0  00000+0 0  9991",
        "tle_line2": "2 37869  65.1784  79.1342 0026357 248.7608 108.5583  2.13101590109877"
      },
      "geometry": {
        "type": "Point",
        "coordinates": [
          114.23721174012046,
          51.250307918677954
        ]
      }
    },
    {
      "type": "Feature",
      "properties": {
        "norad_id": 37948,
        "name": "BEIDOU-2 IGSO-5 (C10)",
        "group": "gnss",
        "lat": -13.07759486838968,
        "lon": -98.28089098705459,
        "alt_km": 36011.20426677047,
        "timestamp": "2025-12-18T04:58:34.819884+00:00",
        "meta_object_name": "BEIDOU-2 IGSO-5 (C10)",
        "meta_object_id": "2011-073A",
        "meta_epoch": "2025-12-17T16:24:35.912736",
        "meta_mean_motion": 1.00290385,
        "meta_eccentricity": 0.01100136,
        "meta_inclination": 48.0109,
        "meta_ra_of_asc_node": 273.7976,
        "meta_arg_of_pericenter": 222.3587,
        "meta_mean_anomaly": 289.8191,
        "meta_ephemeris_type": 0,
        "meta_classification_type": "U",
        "meta_norad_cat_id": 37948,
        "meta_element_set_no": 999,
        "meta_rev_at_epoch": 5131,
        "meta_bstar": 0,
        "meta_mean_motion_dot": -1.81e-06,
        "meta_mean_motion_ddot": 0,
        "tle_line1": "1 37948U 11073A   25351.68374899 -.00000181  00000+0  00000+0 0  9992",
        "tle_line2": "2 37948  48.0109 273.7976 0110013 222.3587 289.8191  1.00290385 51317"
      },
      "geometry": {
        "type": "Point",
        "coordinates": [
          -98.28089098705459,
          -13.07759486838968
        ]
      }
    },
    {
      "type": "Feature",
      "properties": {
        "norad_id": 37951,
        "name": "LUCH 5A (SDCM/PRN 140)",
        "group": "gnss",
        "lat": -7.915848517941058,
        "lon": -31.311763000727723,
        "alt_km": 35778.36025080373,
        "timestamp": "2025-12-18T04:58:34.819899+00:00",
        "meta_object_name": "LUCH 5A (SDCM/PRN 140)",
        "meta_object_id": "2011-074B",
        "meta_epoch": "2025-12-17T22:40:56.797248",
        "meta_mean_motion": 1.0026899,
        "meta_eccentricity": 0.00051,
        "meta_inclination": 8.2929,
        "meta_ra_of_asc_node": 76.5065,
        "meta_arg_of_pericenter": 188.5436,
        "meta_mean_anomaly": 329.094,
        "meta_ephemeris_type": 0,
        "meta_classification_type": "U",
        "meta_norad_cat_id": 37951,
        "meta_element_set_no": 999,
        "meta_rev_at_epoch": 5123,
        "meta_bstar": 0,
        "meta_mean_motion_dot": -3.1e-07,
        "meta_mean_motion_ddot": 0,
        "tle_line1": "1 37951U 11074B   25351.94510182 -.00000031  00000+0  00000+0 0  9997",
        "tle_line2": "2 37951   8.2929  76.5065 0005100 188.5436 329.0940  1.00268990 51230"
      },
      "geometry": {
        "type": "Point",
        "coordinates": [
          -31.311763000727723,
          -7.915848517941058
        ]
      }
    }
  ]
}